{
  "type": "FeatureCollection",
  "features": [
    {
      "type": "Feature",
      "id": "zone_istanbul_besiktas",
      "properties": { "name": "Istanbul — Besiktas school area" },
      "geometry": {
        "type": "Polygon",
        "coordinates": [[[28.985, 41.035], [29.005, 41.035], [29.005, 41.055], [28.985, 41.055], [28.985, 41.035]]]
      }
    },
    {
      "type": "Feature",
      "id": "zone_istanbul_kadikoy",
      "properties": { "name": "Istanbul — Kadikoy school area" },
      "geometry": {
        "type": "Polygon",
        "coordinates": [[[29.015, 40.975], [29.035, 40.975], [29.035, 40.995], [29.015, 40.995], [29.015, 40.975]]]
      }
    },
    {
      "type": "Feature",
      "id": "zone_istanbul_uskudar",
      "properties": { "name": "Istanbul — Uskudar school area" },
      "geometry": {
        "type": "Polygon",
        "coordinates": [[[29.005, 41.005], [29.025, 41.005], [29.025, 41.025], [29.005, 41.025], [29.005, 41.005]]]
      }
    },
    {
      "type": "Feature",
      "id": "zone_istanbul_sariyer",
      "properties": { "name": "Istanbul — Sariyer school area" },
      "geometry": {
        "type": "Polygon",
        "coordinates": [[[29.025, 41.105], [29.045, 41.105], [29.045, 41.125], [29.025, 41.125], [29.025, 41.105]]]
      }
    },
    {
      "type": "Feature",
      "id": "zone_ankara_cankaya",
      "properties": { "name": "Ankara — Cankaya school area" },
      "geometry": {
        "type": "Polygon",
        "coordinates": [[[32.845, 39.905], [32.865, 39.905], [32.865, 39.925], [32.845, 39.925], [32.845, 39.905]]]
      }
    },
    {
      "type": "Feature",
      "id": "zone_ankara_yenimahalle",
      "properties": { "name": "Ankara — Yenimahalle school area" },
      "geometry": {
        "type": "Polygon",
        "coordinates": [[[32.735, 39.955], [32.755, 39.955], [32.755, 39.975], [32.735, 39.975], [32.735, 39.955]]]
      }
    },
    {
      "type": "Feature",
      "id": "zone_izmir_bornova",
      "properties": { "name": "Izmir — Bornova school area" },
      "geometry": {
        "type": "Polygon",
        "coordinates": [[[27.205, 38.445], [27.225, 38.445], [27.225, 38.465], [27.205, 38.465], [27.205, 38.445]]]
      }
    },
    {
      "type": "Feature",
      "id": "zone_izmir_konak",
      "properties": { "name": "Izmir — Konak school area" },
      "geometry": {
        "type": "Polygon",
        "coordinates": [[[27.115, 38.405], [27.135, 38.405], [27.135, 38.425], [27.115, 38.425], [27.115, 38.405]]]
      }
    },
    {
      "type": "Feature",
      "id": "zone_bursa_nilufer",
      "properties": { "name": "Bursa — Nilufer school area" },
      "geometry": {
        "type": "Polygon",
        "coordinates": [[[28.955, 40.205], [28.975, 40.205], [28.975, 40.225], [28.955, 40.225], [28.955, 40.205]]]
      }
    },
    {
      "type": "Feature",
      "id": "zone_antalya_muratpasa",
      "properties": { "name": "Antalya — Muratpasa school area" },
      "geometry": {
        "type": "Polygon",
        "coordinates": [[[30.635, 36.875], [30.655, 36.875], [30.655, 36.895], [30.635, 36.895], [30.635, 36.875]]]
      }
    },
    {
      "type": "Feature",
      "id": "zone_adana_seyhan",
      "properties": { "name": "Adana — Seyhan school area" },
      "geometry": {
        "type": "Polygon",
        "coordinates": [[[35.315, 36.985], [35.335, 36.985], [35.335, 37.005], [35.315, 37.005], [35.315, 36.985]]]
      }
    },
    {
      "type": "Feature",
      "id": "zone_gaziantep_sehitkamil",
      "properties": { "name": "Gaziantep — Sehitkamil school area" },
      "geometry": {
        "type": "Polygon",
        "coordinates": [[[37.365, 37.045], [37.385, 37.045], [37.385, 37.065], [37.365, 37.065], [37.365, 37.045]]]
      }
    },
    {
      "type": "Feature",
      "id": "zone_konya_selcuklu",
      "properties": { "name": "Konya — Selcuklu school area" },
      "geometry": {
        "type": "Polygon",
        "coordinates": [[[32.475, 37.855], [32.495, 37.855], [32.495, 37.875], [32.475, 37.875], [32.475, 37.855]]]
      }
    },
    {
      "type": "Feature",
      "id": "zone_trabzon_ortahisar",
      "properties": { "name": "Trabzon — Ortahisar school area" },
      "geometry": {
        "type": "Polygon",
        "coordinates": [[[39.705, 40.985], [39.725, 40.985], [39.725, 41.005], [39.705, 41.005], [39.705, 40.985]]]
      }
    },
    {
      "type": "Feature",
      "id": "zone_eskisehir_tepebasi",
      "properties": { "name": "Eskisehir — Tepebasi school area" },
      "geometry": {
        "type": "Polygon",
        "coordinates": [[[30.505, 39.765], [30.525, 39.765], [30.525, 39.785], [30.505, 39.785], [30.505, 39.765]]]
      }
    },
    {
      "type": "Feature",
      "id": "zone_diyarbakir_kayapinar",
      "properties": { "name": "Diyarbakir — Kayapinar school area" },
      "geometry": {
        "type": "Polygon",
        "coordinates": [[[40.195, 37.895], [40.215, 37.895], [40.215, 37.915], [40.195, 37.915], [40.195, 37.895]]]
      }
    },
    {
      "type": "Feature",
      "id": "zone_kayseri_melikgazi",
      "properties": { "name": "Kayseri — Melikgazi school area" },
      "geometry": {
        "type": "Polygon",
        "coordinates": [[[35.465, 38.705], [35.485, 38.705], [35.485, 38.725], [35.465, 38.725], [35.465, 38.705]]]
      }
    },
    {
      "type": "Feature",
      "id": "zone_mersin_yenisehir",
      "properties": { "name": "Mersin — Yenisehir school area" },
      "geometry": {
        "type": "Polygon",
        "coordinates": [[[34.625, 36.785], [34.645, 36.785], [34.645, 36.805], [34.625, 36.805], [34.625, 36.785]]]
      }
    },
    {
      "type": "Feature",
      "id": "zone_samsun_ilkadim",
      "properties": { "name": "Samsun — Ilkadim school area" },
      "geometry": {
        "type": "Polygon",
        "coordinates": [[[36.315, 41.265], [36.335, 41.265], [36.335, 41.285], [36.315, 41.285], [36.315, 41.265]]]
      }
    },
    {
      "type": "Feature",
      "id": "zone_kocaeli_izmit",
      "properties": { "name": "Kocaeli — Izmit school area" },
      "geometry": {
        "type": "Polygon",
        "coordinates": [[[29.915, 40.755], [29.935, 40.755], [29.935, 40.775], [29.915, 40.775], [29.915, 40.755]]]
      }
    }
  ]
}
